STARLINK-37312          
1 68676U 26077Q   26117.00002315  .00015525  00000+0  10497-3 0  9994
2 68676  97.2846 348.2918 0001367  90.2075   8.9120 15.75144267  3494
STARLINK-36168          
1 68677U 26077R   26114.57062886  .00143735  00000+0  94652-3 0  9993
2 68677  97.2839 345.7384 0001497  84.0172 276.1264 15.75235758  2133
STARLINK-37122          
1 68678U 26077S   26117.00002315  .00074156  00000+0  49499-3 0  9995
2 68678  97.2846 348.2892 0001351 102.7462 350.3690 15.75131143  3449
STARLINK-37310          
1 68679U 26077T   26117.00002315  .00039485  00000+0  26509-3 0  9999
2 68679  97.2847 348.2905 0001214 123.4388 333.6857 15.75127076  3495
STARLINK-37306          
1 68680U 26077U   26117.00002315  .00012706  00000+0  86117-4 0  9990
2 68680  97.2845 348.2955 0001552  75.1308  33.9937 15.75138283  3491
STARLINK-37307          
1 68681U 26077V   26117.00002315  .00057966  00000+0  38794-3 0  9995
2 68681  97.2845 348.2948 0001667 110.8221 356.3023 15.75125219  3495
STARLINK-37300          
1 68682U 26077W   26117.00002315  .00031218  00000+0  20985-3 0  9991
2 68682  97.2845 348.3056 0001533  93.4560  37.6609 15.75140214  3335
STARLINK-37304          
1 68683U 26077X   26117.00002315  .00013209  00000+0  89479-4 0  9996
2 68683  97.2844 348.3038 0001343  89.0576  40.0610 15.75140610  3499
STARLINK-37287          
1 68684U 26077Y   26117.00002315  .00061324  00000+0  41010-3 0  9996
2 68684  97.2843 348.3019 0001597 102.8895  20.2213 15.75131134  3497
STARLINK-36278          
1 68685U 26077Z   26117.00002315  .00072875  00000+0  48661-3 0  9999
2 68685  97.2842 348.3077 0001290  92.1504  42.9621 15.75127668  3490
STARLINK-37213          
1 68686U 26077AA  26117.00002315  .00048035  00000+0  32185-3 0  9995
2 68686  97.2846 348.2983 0001521 111.6851   5.4238 15.75136379  3496
GUOWANG TEST OBJECT A   
1 68687U 26078A   26115.04790389  .00000325  00000+0  35886-3 0  9995
2 68687  86.4971 300.9670 0008269 240.4205 119.6131 13.68817347  1842
CYGNUS NG-24            
1 68689U 26079A   26117.16773235  .00010693  00000+0  20200-3 0  9997
2 68689  51.6319 192.6271 0007042 355.6641   4.4286 15.48984622  2493
JILIN GAOFEN OBJECT A   
1 68691U 26080A   26116.15268626  .00000976  00000+0  66895-4 0  9997
2 68691  97.6634 191.7713 0011353 237.0802 122.9335 15.08385887  1819
