[{"OBJECT_NAME":"STARLINK-37312","OBJECT_ID":"2026-077Q","EPOCH":"2026-04-27T00:00:02.000160","MEAN_MOTION":15.75144267,"ECCENTRICITY":0.00013674,"INCLINATION":97.2846,"RA_OF_ASC_NODE":348.2918,"ARG_OF_PERICENTER":90.2075,"MEAN_ANOMALY":8.912,"EPHEMERIS_TYPE":0,"CLASSIFICATION_TYPE":"U","NORAD_CAT_ID":68676,"ELEMENT_SET_NO":999,"REV_AT_EPOCH":349,"BSTAR":0.0001049706,"MEAN_MOTION_DOT":0.00015525,"MEAN_MOTION_DDOT":0},{"OBJECT_NAME":"STARLINK-36168","OBJECT_ID":"2026-077R","EPOCH":"2026-04-24T13:41:42.333504","MEAN_MOTION":15.75235758,"ECCENTRICITY":0.00014974,"INCLINATION":97.2839,"RA_OF_ASC_NODE":345.7384,"ARG_OF_PERICENTER":84.0172,"MEAN_ANOMALY":276.1264,"EPHEMERIS_TYPE":0,"CLASSIFICATION_TYPE":"U","NORAD_CAT_ID":68677,"ELEMENT_SET_NO":999,"REV_AT_EPOCH":213,"BSTAR":0.00094652181,"MEAN_MOTION_DOT":0.00143735,"MEAN_MOTION_DDOT":0},{"OBJECT_NAME":"STARLINK-37122","OBJECT_ID":"2026-077S","EPOCH":"2026-04-27T00:00:02.000160","MEAN_MOTION":15.75131143,"ECCENTRICITY":0.00013511,"INCLINATION":97.2846,"RA_OF_ASC_NODE":348.2892,"ARG_OF_PERICENTER":102.7462,"MEAN_ANOMALY":350.369,"EPHEMERIS_TYPE":0,"CLASSIFICATION_TYPE":"U","NORAD_CAT_ID":68678,"ELEMENT_SET_NO":999,"REV_AT_EPOCH":344,"BSTAR":0.0004949946,"MEAN_MOTION_DOT":0.00074156,"MEAN_MOTION_DDOT":0},{"OBJECT_NAME":"STARLINK-37310","OBJECT_ID":"2026-077T","EPOCH":"2026-04-27T00:00:02.000160","MEAN_MOTION":15.75127076,"ECCENTRICITY":0.00012145,"INCLINATION":97.2847,"RA_OF_ASC_NODE":348.2905,"ARG_OF_PERICENTER":123.4388,"MEAN_ANOMALY":333.6857,"EPHEMERIS_TYPE":0,"CLASSIFICATION_TYPE":"U","NORAD_CAT_ID":68679,"ELEMENT_SET_NO":999,"REV_AT_EPOCH":349,"BSTAR":0.000265094,"MEAN_MOTION_DOT":0.00039485,"MEAN_MOTION_DDOT":0},{"OBJECT_NAME":"STARLINK-37306","OBJECT_ID":"2026-077U","EPOCH":"2026-04-27T00:00:02.000160","MEAN_MOTION":15.75138283,"ECCENTRICITY":0.00015528,"INCLINATION":97.2845,"RA_OF_ASC_NODE":348.2955,"ARG_OF_PERICENTER":75.1308,"MEAN_ANOMALY":33.9937,"EPHEMERIS_TYPE":0,"CLASSIFICATION_TYPE":"U","NORAD_CAT_ID":68680,"ELEMENT_SET_NO":999,"REV_AT_EPOCH":349,"BSTAR":8.6117187e-5,"MEAN_MOTION_DOT":0.00012706,"MEAN_MOTION_DDOT":0},{"OBJECT_NAME":"STARLINK-37307","OBJECT_ID":"2026-077V","EPOCH":"2026-04-27T00:00:02.000160","MEAN_MOTION":15.75125219,"ECCENTRICITY":0.00016676,"INCLINATION":97.2845,"RA_OF_ASC_NODE":348.2948,"ARG_OF_PERICENTER":110.8221,"MEAN_ANOMALY":356.3023,"EPHEMERIS_TYPE":0,"CLASSIFICATION_TYPE":"U","NORAD_CAT_ID":68681,"ELEMENT_SET_NO":999,"REV_AT_EPOCH":349,"BSTAR":0.00038794157,"MEAN_MOTION_DOT":0.00057966,"MEAN_MOTION_DDOT":0},{"OBJECT_NAME":"STARLINK-37300","OBJECT_ID":"2026-077W","EPOCH":"2026-04-27T00:00:02.000160","MEAN_MOTION":15.75140214,"ECCENTRICITY":0.00015336,"INCLINATION":97.2845,"RA_OF_ASC_NODE":348.3056,"ARG_OF_PERICENTER":93.456,"MEAN_ANOMALY":37.6609,"EPHEMERIS_TYPE":0,"CLASSIFICATION_TYPE":"U","NORAD_CAT_ID":68682,"ELEMENT_SET_NO":999,"REV_AT_EPOCH":333,"BSTAR":0.0002098506,"MEAN_MOTION_DOT":0.00031218,"MEAN_MOTION_DDOT":0},{"OBJECT_NAME":"STARLINK-37304","OBJECT_ID":"2026-077X","EPOCH":"2026-04-27T00:00:02.000160","MEAN_MOTION":15.7514061,"ECCENTRICITY":0.00013436,"INCLINATION":97.2844,"RA_OF_ASC_NODE":348.3038,"ARG_OF_PERICENTER":89.0576,"MEAN_ANOMALY":40.061,"EPHEMERIS_TYPE":0,"CLASSIFICATION_TYPE":"U","NORAD_CAT_ID":68683,"ELEMENT_SET_NO":999,"REV_AT_EPOCH":349,"BSTAR":8.9479149e-5,"MEAN_MOTION_DOT":0.00013209,"MEAN_MOTION_DDOT":0},{"OBJECT_NAME":"STARLINK-37287","OBJECT_ID":"2026-077Y","EPOCH":"2026-04-27T00:00:02.000160","MEAN_MOTION":15.75131134,"ECCENTRICITY":0.0001597,"INCLINATION":97.2843,"RA_OF_ASC_NODE":348.3019,"ARG_OF_PERICENTER":102.8895,"MEAN_ANOMALY":20.2213,"EPHEMERIS_TYPE":0,"CLASSIFICATION_TYPE":"U","NORAD_CAT_ID":68684,"ELEMENT_SET_NO":999,"REV_AT_EPOCH":349,"BSTAR":0.00041009989,"MEAN_MOTION_DOT":0.00061324,"MEAN_MOTION_DDOT":0},{"OBJECT_NAME":"STARLINK-36278","OBJECT_ID":"2026-077Z","EPOCH":"2026-04-27T00:00:02.000160","MEAN_MOTION":15.75127668,"ECCENTRICITY":0.000129,"INCLINATION":97.2842,"RA_OF_ASC_NODE":348.3077,"ARG_OF_PERICENTER":92.1504,"MEAN_ANOMALY":42.9621,"EPHEMERIS_TYPE":0,"CLASSIFICATION_TYPE":"U","NORAD_CAT_ID":68685,"ELEMENT_SET_NO":999,"REV_AT_EPOCH":349,"BSTAR":0.00048660678,"MEAN_MOTION_DOT":0.00072875,"MEAN_MOTION_DDOT":0},{"OBJECT_NAME":"STARLINK-37213","OBJECT_ID":"2026-077AA","EPOCH":"2026-04-27T00:00:02.000160","MEAN_MOTION":15.75136379,"ECCENTRICITY":0.00015213,"INCLINATION":97.2846,"RA_OF_ASC_NODE":348.2983,"ARG_OF_PERICENTER":111.6851,"MEAN_ANOMALY":5.4238,"EPHEMERIS_TYPE":0,"CLASSIFICATION_TYPE":"U","NORAD_CAT_ID":68686,"ELEMENT_SET_NO":999,"REV_AT_EPOCH":349,"BSTAR":0.000321849,"MEAN_MOTION_DOT":0.00048035,"MEAN_MOTION_DDOT":0},{"OBJECT_NAME":"GUOWANG TEST OBJECT A","OBJECT_ID":"2026-078A","EPOCH":"2026-04-25T01:08:58.896096","MEAN_MOTION":13.68817347,"ECCENTRICITY":0.000827,"INCLINATION":86.4971,"RA_OF_ASC_NODE":300.967,"ARG_OF_PERICENTER":240.4205,"MEAN_ANOMALY":119.6131,"EPHEMERIS_TYPE":0,"CLASSIFICATION_TYPE":"U","NORAD_CAT_ID":68687,"ELEMENT_SET_NO":999,"REV_AT_EPOCH":184,"BSTAR":0.00035886,"MEAN_MOTION_DOT":3.25e-6,"MEAN_MOTION_DDOT":0},{"OBJECT_NAME":"CYGNUS NG-24","OBJECT_ID":"2026-079A","EPOCH":"2026-04-27T04:01:32.075040","MEAN_MOTION":15.48984622,"ECCENTRICITY":0.00070425,"INCLINATION":51.6319,"RA_OF_ASC_NODE":192.6271,"ARG_OF_PERICENTER":355.6641,"MEAN_ANOMALY":4.4286,"EPHEMERIS_TYPE":0,"CLASSIFICATION_TYPE":"U","NORAD_CAT_ID":68689,"ELEMENT_SET_NO":999,"REV_AT_EPOCH":249,"BSTAR":0.00020199612,"MEAN_MOTION_DOT":0.00010693,"MEAN_MOTION_DDOT":0},{"OBJECT_NAME":"JILIN GAOFEN OBJECT A","OBJECT_ID":"2026-080A","EPOCH":"2026-04-26T03:39:52.092864","MEAN_MOTION":15.08385887,"ECCENTRICITY":0.00113537,"INCLINATION":97.6634,"RA_OF_ASC_NODE":191.7713,"ARG_OF_PERICENTER":237.0802,"MEAN_ANOMALY":122.9335,"EPHEMERIS_TYPE":0,"CLASSIFICATION_TYPE":"U","NORAD_CAT_ID":68691,"ELEMENT_SET_NO":999,"REV_AT_EPOCH":181,"BSTAR":6.6894768e-5,"MEAN_MOTION_DOT":9.76e-6,"MEAN_MOTION_DDOT":0}]
